{
  "type": "FeatureCollection",
  "features": [
    {
      "type": "Feature",
      "properties": {
        "norad_id": 34721,
        "name": "COSMOS 2251 DEB",
        "group": "cosmos-2251-debris",
        "lat": -32.30645025223724,
        "lon": -27.039950214371743,
        "alt_km": 788.1188433724792,
        "timestamp": "2025-12-02T19:35:50.949500+00:00",
        "meta_object_name": "COSMOS 2251 DEB",
        "meta_object_id": "1993-036YP",
        "meta_epoch": "2025-12-02T07:48:06.027264",
        "meta_mean_motion": 13.96762831,
        "meta_eccentricity": 0.022397,
        "meta_inclination": 73.9234,
        "meta_ra_of_asc_node": 344.3187,
        "meta_arg_of_pericenter": 285.1168,
        "meta_mean_anomaly": 89.0422,
        "meta_ephemeris_type": 0,
        "meta_classification_type": "U",
        "meta_norad_cat_id": 34721,
        "meta_element_set_no": 999,
        "meta_rev_at_epoch": 85004,
        "meta_bstar": 0.0021289,
        "meta_mean_motion_dot": 3.628e-05,
        "meta_mean_motion_ddot": 0,
        "tle_line1": "1 34721U 93036YP  25336.32506976  .00003628  00000+0  21289-2 0  9997",
        "tle_line2": "2 34721  73.9234 344.3187 0223970 285.1168  89.0422 13.96762831850049"
      },
      "geometry": {
        "type": "Point",
        "coordinates": [
          -27.039950214371743,
          -32.30645025223724
        ]
      }
    },
    {
      "type": "Feature",
      "properties": {
        "norad_id": 34722,
        "name": "COSMOS 2251 DEB",
        "group": "cosmos-2251-debris",
        "lat": 12.682166190939716,
        "lon": -2.498456239499321,
        "alt_km": 856.5551279370538,
        "timestamp": "2025-12-02T19:35:50.949510+00:00",
        "meta_object_name": "COSMOS 2251 DEB",
        "meta_object_id": "1993-036YQ",
        "meta_epoch": "2025-12-02T11:45:46.622880",
        "meta_mean_motion": 14.11878385,
        "meta_eccentricity": 0.0167511,
        "meta_inclination": 73.8718,
        "meta_ra_of_asc_node": 354.3501,
        "meta_arg_of_pericenter": 281.6689,
        "meta_mean_anomaly": 231.1645,
        "meta_ephemeris_type": 0,
        "meta_classification_type": "U",
        "meta_norad_cat_id": 34722,
        "meta_element_set_no": 999,
        "meta_rev_at_epoch": 86100,
        "meta_bstar": 0.0010658,
        "meta_mean_motion_dot": 2.195e-05,
        "meta_mean_motion_ddot": 0,
        "tle_line1": "1 34722U 93036YQ  25336.49012295  .00002195  00000+0  10658-2 0  9998",
        "tle_line2": "2 34722  73.8718 354.3501 0167511 281.6689 231.1645 14.11878385861009"
      },
      "geometry": {
        "type": "Point",
        "coordinates": [
          -2.498456239499321,
          12.682166190939716
        ]
      }
    },
    {
      "type": "Feature",
      "properties": {
        "norad_id": 34726,
        "name": "COSMOS 2251 DEB",
        "group": "cosmos-2251-debris",
        "lat": 35.42995791925501,
        "lon": 173.49764972207407,
        "alt_km": 663.3681113572502,
        "timestamp": "2025-12-02T19:35:50.949536+00:00",
        "meta_object_name": "COSMOS 2251 DEB",
        "meta_object_id": "1993-036YU",
        "meta_epoch": "2025-12-02T05:47:02.848416",
        "meta_mean_motion": 14.59417296,
        "meta_eccentricity": 0.0042578,
        "meta_inclination": 74.0293,
        "meta_ra_of_asc_node": 6.351,
        "meta_arg_of_pericenter": 160.2516,
        "meta_mean_anomaly": 200.031,
        "meta_ephemeris_type": 0,
        "meta_classification_type": "U",
        "meta_norad_cat_id": 34726,
        "meta_element_set_no": 999,
        "meta_rev_at_epoch": 88349,
        "meta_bstar": 0.00051339,
        "meta_mean_motion_dot": 2.434e-05,
        "meta_mean_motion_ddot": 0,
        "tle_line1": "1 34726U 93036YU  25336.24100519  .00002434  00000+0  51339-3 0  9990",
        "tle_line2": "2 34726  74.0293   6.3510 0042578 160.2516 200.0310 14.59417296883497"
      },
      "geometry": {
        "type": "Point",
        "coordinates": [
          173.49764972207407,
          35.42995791925501
        ]
      }
    },
    {
      "type": "Feature",
      "properties": {
        "norad_id": 34728,
        "name": "COSMOS 2251 DEB",
        "group": "cosmos-2251-debris",
        "lat": -22.530571299044777,
        "lon": -95.77242857350606,
        "alt_km": 666.3343825346356,
        "timestamp": "2025-12-02T19:35:50.949549+00:00",
        "meta_object_name": "COSMOS 2251 DEB",
        "meta_object_id": "1993-036YW",
        "meta_epoch": "2025-11-30T13:49:42.045312",
        "meta_mean_motion": 14.70651405,
        "meta_eccentricity": 0.0040689,
        "meta_inclination": 74.0169,
        "meta_ra_of_asc_node": 275.4077,
        "meta_arg_of_pericenter": 76.4781,
        "meta_mean_anomaly": 284.0918,
        "meta_ephemeris_type": 0,
        "meta_classification_type": "U",
        "meta_norad_cat_id": 34728,
        "meta_element_set_no": 999,
        "meta_rev_at_epoch": 88621,
        "meta_bstar": 0.00075074,
        "meta_mean_motion_dot": 4.599e-05,
        "meta_mean_motion_ddot": 0,
        "tle_line1": "1 34728U 93036YW  25334.57618108  .00004599  00000+0  75074-3 0  9990",
        "tle_line2": "2 34728  74.0169 275.4077 0040689  76.4781 284.0918 14.70651405886215"
      },
      "geometry": {
        "type": "Point",
        "coordinates": [
          -95.77242857350606,
          -22.530571299044777
        ]
      }
    },
    {
      "type": "Feature",
      "properties": {
        "norad_id": 34729,
        "name": "COSMOS 2251 DEB",
        "group": "cosmos-2251-debris",
        "lat": -65.16078237242853,
        "lon": -20.16871208066947,
        "alt_km": 635.9268602311686,
        "timestamp": "2025-12-02T19:35:50.949561+00:00",
        "meta_object_name": "COSMOS 2251 DEB",
        "meta_object_id": "1993-036YX",
        "meta_epoch": "2025-12-02T03:59:29.960736",
        "meta_mean_motion": 14.82315258,
        "meta_eccentricity": 0.00122865,
        "meta_inclination": 74.0195,
        "meta_ra_of_asc_node": 19.3666,
        "meta_arg_of_pericenter": 145.0908,
        "meta_mean_anomaly": 275.6495,
        "meta_ephemeris_type": 0,
        "meta_classification_type": "U",
        "meta_norad_cat_id": 34729,
        "meta_element_set_no": 999,
        "meta_rev_at_epoch": 88301,
        "meta_bstar": 0.0020682703,
        "meta_mean_motion_dot": 0.00016565,
        "meta_mean_motion_ddot": 0,
        "tle_line1": "1 34729U 93036YX  25336.16631899  .00016565  00000+0  20683-2 0  9991",
        "tle_line2": "2 34729  74.0195  19.3666 0012286 145.0908 275.6495 14.82315258883017"
      },
      "geometry": {
        "type": "Point",
        "coordinates": [
          -20.16871208066947,
          -65.16078237242853
        ]
      }
    },
    {
      "type": "Feature",
      "properties": {
        "norad_id": 34732,
        "name": "COSMOS 2251 DEB",
        "group": "cosmos-2251-debris",
        "lat": -24.053048321874467,
        "lon": 104.39180290840501,
        "alt_km": 729.9911992069037,
        "timestamp": "2025-12-02T19:35:50.949572+00:00",
        "meta_object_name": "COSMOS 2251 DEB",
        "meta_object_id": "1993-036ZA",
        "meta_epoch": "2025-12-02T02:01:16.053312",
        "meta_mean_motion": 14.47279623,
        "meta_eccentricity": 0.00404868,
        "meta_inclination": 74.044,
        "meta_ra_of_asc_node": 113.0964,
        "meta_arg_of_pericenter": 266.0706,
        "meta_mean_anomaly": 214.3828,
        "meta_ephemeris_type": 0,
        "meta_classification_type": "U",
        "meta_norad_cat_id": 34732,
        "meta_element_set_no": 999,
        "meta_rev_at_epoch": 87989,
        "meta_bstar": 0.0001843837,
        "meta_mean_motion_dot": 6.53e-06,
        "meta_mean_motion_ddot": 0,
        "tle_line1": "1 34732U 93036ZA  25336.08421358  .00000653  00000+0  18438-3 0  9990",
        "tle_line2": "2 34732  74.0440 113.0964 0040486 266.0706 214.3828 14.47279623879897"
      },
      "geometry": {
        "type": "Point",
        "coordinates": [
          104.39180290840501,
          -24.053048321874467
        ]
      }
    },
    {
      "type": "Feature",
      "properties": {
        "norad_id": 34736,
        "name": "COSMOS 2251 DEB",
        "group": "cosmos-2251-debris",
        "lat": -66.87375703931224,
        "lon": 15.619629566892291,
        "alt_km": 453.48598870863225,
        "timestamp": "2025-12-02T19:35:50.949582+00:00",
        "meta_object_name": "COSMOS 2251 DEB",
        "meta_object_id": "1993-036ZE",
        "meta_epoch": "2025-12-02T12:06:37.585152",
        "meta_mean_motion": 15.38338402,
        "meta_eccentricity": 0.0014658,
        "meta_inclination": 74.0053,
        "meta_ra_of_asc_node": 58.488,
        "meta_arg_of_pericenter": 355.7945,
        "meta_mean_anomaly": 4.3136,
        "meta_ephemeris_type": 0,
        "meta_classification_type": "U",
        "meta_norad_cat_id": 34736,
        "meta_element_set_no": 999,
        "meta_rev_at_epoch": 88290,
        "meta_bstar": 0.0090948,
        "meta_mean_motion_dot": 0.00361631,
        "meta_mean_motion_ddot": 0,
        "tle_line1": "1 34736U 93036ZE  25336.50460168  .00361631  00000+0  90948-2 0  9994",
        "tle_line2": "2 34736  74.0053  58.4880 0014658 355.7945   4.3136 15.38338402882900"
      },
      "geometry": {
        "type": "Point",
        "coordinates": [
          15.619629566892291,
          -66.87375703931224
        ]
      }
    }
  ]
}